QIANFAN-25              
1 61558U 24185G   25300.81518591  .00000692  00000+0  41483-3 0  9992
2 61558  88.9775  83.3795 0010722  89.4685 270.7725 14.05842892 63055
QIANFAN-26              
1 61559U 24185H   25300.85011811  .00000427  00000+0  41429-3 0  9996
2 61559  88.9774  84.6970 0006918 138.3314 221.8381 13.77773597 62359
QIANFAN-27              
1 61560U 24185J   25300.82801442  .00000870  00000+0  34991-3 0  9990
2 61560  88.9771  82.3196 0010033  83.3793 276.8542 14.27244442 63613
QIANFAN-28              
1 61561U 24185K   25300.83183216  .00001450  00000+0  58009-3 0  9995
2 61561  88.9789  82.3186 0009194  83.5771 276.6470 14.27887577 63627
QIANFAN-29              
1 61562U 24185L   25300.81977503  .00000263  00000+0  38922-3 0  9997
2 61562  88.9749  86.0495 0010312 174.6184 185.5080 13.50987413 61596
QIANFAN-30              
1 61563U 24185M   25300.83400499  .00000232  00000+0  34609-3 0  9999
2 61563  88.9769  85.5558 0008239 157.6210 202.5301 13.49964049 61874
QIANFAN-31              
1 61564U 24185N   25300.85080007  .00000267  00000+0  35249-3 0  9990
2 61564  88.9754  85.4287 0007986 153.1651 206.9918 13.57938449 61938
QIANFAN-32              
1 61565U 24185P   25300.82781860  .00000228  00000+0  33605-3 0  9994
2 61565  88.9812  85.6766 0009250 185.4293 174.6759 13.50715350 61845
